start=new Date('2022-02-20T00:00:00.000Z').valueOf();
sats=[{"ECCENTRICITY":"0.00014340","DECAY_DATE":null,"REV_AT_EPOCH":"5803","SEMIMAJOR_AXIS":"6925.340","SITE":"AFETR","REF_FRAME":"TEME","CLASSIFICATION_TYPE":"U","MEAN_MOTION_DDOT":"0.0000000000000","OBJECT_TYPE":"PAYLOAD","FILE":"3308986","RCS_SIZE":"LARGE","TLE_LINE2":"2 47572  53.0561 170.6395 0001434  62.9321 297.1814 15.06402914 58033","NORAD_CAT_ID":"47572","MEAN_ELEMENT_THEORY":"SGP4","GP_ID":"196428565","PERIOD":"95.592","RA_OF_ASC_NODE":"170.6395","COUNTRY_CODE":"US","TIME_SYSTEM":"UTC","LAUNCH_DATE":"2021-02-04","EPHEMERIS_TYPE":"0","TLE_LINE1":"1 47572U 21009AA  22050.79506133  .00005011  00000-0  35506-3 0  9999","MEAN_MOTION":"15.06402914","PERIAPSIS":"546.212","INCLINATION":"53.0561","BSTAR":"0.00035506000000","OBJECT_NAME":"STARLINK-1971","MEAN_ANOMALY":"297.1814","OBJECT_ID":"2021-009AA","CENTER_NAME":"EARTH","APOAPSIS":"548.198","ELEMENT_SET_NO":"999","ARG_OF_PERICENTER":"62.9321","MEAN_MOTION_DOT":"0.00005011","EPOCH":"2022-02-19T19:04:53.298912"},{"NORAD_CAT_ID":"47573","MEAN_ELEMENT_THEORY":"SGP4","PERIOD":"95.592","GP_ID":"196428819","RCS_SIZE":"LARGE","FILE":"3308986","TLE_LINE2":"2 47573  53.0552 171.3279 0001573  70.4630 289.6529 15.06403422 58005","REF_FRAME":"TEME","CLASSIFICATION_TYPE":"U","SITE":"AFETR","OBJECT_TYPE":"PAYLOAD","MEAN_MOTION_DDOT":"0.0000000000000","DECAY_DATE":null,"ECCENTRICITY":"0.00015730","SEMIMAJOR_AXIS":"6925.338","REV_AT_EPOCH":"5800","ARG_OF_PERICENTER":"70.4630","ELEMENT_SET_NO":"999","EPOCH":"2022-02-19T15:21:56.852640","MEAN_MOTION_DOT":"-0.00000010","APOAPSIS":"548.292","CENTER_NAME":"EARTH","INCLINATION":"53.0552","BSTAR":"0.00001821600000","PERIAPSIS":"546.114","MEAN_MOTION":"15.06403422","TLE_LINE1":"1 47573U 21009AB  22050.64024135 -.00000010  00000-0  18216-4 0  9996","OBJECT_ID":"2021-009AB","MEAN_ANOMALY":"289.6529","OBJECT_NAME":"STARLINK-1975","COUNTRY_CODE":"US","RA_OF_ASC_NODE":"171.3279","EPHEMERIS_TYPE":"0","LAUNCH_DATE":"2021-02-04","TIME_SYSTEM":"UTC"},{"FILE":"3308986","RCS_SIZE":"LARGE","TLE_LINE2":"2 47574  53.0555 200.3678 0001639  70.1194 289.9972 15.06395159 57618","NORAD_CAT_ID":"47574","MEAN_ELEMENT_THEORY":"SGP4","GP_ID":"196427570","PERIOD":"95.592","DECAY_DATE":null,"ECCENTRICITY":"0.00016390","REV_AT_EPOCH":"5761","SEMIMAJOR_AXIS":"6925.363","SITE":"AFETR","REF_FRAME":"TEME","CLASSIFICATION_TYPE":"U","MEAN_MOTION_DDOT":"0.0000000000000","OBJECT_TYPE":"PAYLOAD","CENTER_NAME":"EARTH","APOAPSIS":"548.363","ARG_OF_PERICENTER":"70.1194","ELEMENT_SET_NO":"999","EPOCH":"2022-02-19T20:31:07.701600","MEAN_MOTION_DOT":"-0.00000984","COUNTRY_CODE":"US","RA_OF_ASC_NODE":"200.3678","LAUNCH_DATE":"2021-02-04","TIME_SYSTEM":"UTC","EPHEMERIS_TYPE":"0","MEAN_MOTION":"15.06395159","TLE_LINE1":"1 47574U 21009AC  22050.85495025 -.00000984  00000-0 -47148-4 0  9997","INCLINATION":"53.0555","BSTAR":"-0.00004714800000","PERIAPSIS":"546.093","MEAN_ANOMALY":"289.9972","OBJECT_ID":"2021-009AC","OBJECT_NAME":"STARLINK-1976"},{"DECAY_DATE":null,"ECCENTRICITY":"0.00013180","SEMIMAJOR_AXIS":"6925.365","REV_AT_EPOCH":"5759","REF_FRAME":"TEME","CLASSIFICATION_TYPE":"U","SITE":"AFETR","OBJECT_TYPE":"PAYLOAD","MEAN_MOTION_DDOT":"0.0000000000000","RCS_SIZE":"LARGE","FILE":"3308986","TLE_LINE2":"2 47575  53.0543 201.0092 0001318  72.3299 287.7834 15.06394596 57592","NORAD_CAT_ID":"47575","MEAN_ELEMENT_THEORY":"SGP4","PERIOD":"95.592","GP_ID":"196427818","COUNTRY_CODE":"US","RA_OF_ASC_NODE":"201.0092","EPHEMERIS_TYPE":"0","TIME_SYSTEM":"UTC","LAUNCH_DATE":"2021-02-04","INCLINATION":"53.0543","BSTAR":"0.00009989600000","PERIAPSIS":"546.317","MEAN_MOTION":"15.06394596","TLE_LINE1":"1 47575U 21009AD  22050.71121197  .00001207  00000-0  99896-4 0  9993","MEAN_ANOMALY":"287.7834","OBJECT_ID":"2021-009AD","OBJECT_NAME":"STARLINK-1977","APOAPSIS":"548.143","CENTER_NAME":"EARTH","ELEMENT_SET_NO":"999","ARG_OF_PERICENTER":"72.3299","EPOCH":"2022-02-19T17:04:08.714208","MEAN_MOTION_DOT":"0.00001207"},{"INCLINATION":"53.0543","BSTAR":"0.00014485000000","PERIAPSIS":"546.040","MEAN_MOTION":"15.06402468","TLE_LINE1":"1 47576U 21009AE  22050.81071563  .00001877  00000-0  14485-3 0  9999","MEAN_ANOMALY":"306.4671","OBJECT_ID":"2021-009AE","OBJECT_NAME":"STARLINK-1978","COUNTRY_CODE":"US","RA_OF_ASC_NODE":"160.5585","EPHEMERIS_TYPE":"0","TIME_SYSTEM":"UTC","LAUNCH_DATE":"2021-02-04","ELEMENT_SET_NO":"999","ARG_OF_PERICENTER":"53.6473","EPOCH":"2022-02-19T19:27:25.830432","MEAN_MOTION_DOT":"0.00001877","APOAPSIS":"548.372","CENTER_NAME":"EARTH","REF_FRAME":"TEME","CLASSIFICATION_TYPE":"U","SITE":"AFETR","OBJECT_TYPE":"PAYLOAD","MEAN_MOTION_DDOT":"0.0000000000000","DECAY_DATE":null,"ECCENTRICITY":"0.00016830","SEMIMAJOR_AXIS":"6925.341","REV_AT_EPOCH":"5817","MEAN_ELEMENT_THEORY":"SGP4","NORAD_CAT_ID":"47576","PERIOD":"95.592","GP_ID":"196428065","RCS_SIZE":"LARGE","FILE":"3308986","TLE_LINE2":"2 47576  53.0543 160.5585 0001683  53.6473 306.4671 15.06402468 58171"},{"SITE":"AFETR","REF_FRAME":"TEME","CLASSIFICATION_TYPE":"U","MEAN_MOTION_DDOT":"0.0000000000000","OBJECT_TYPE":"PAYLOAD","DECAY_DATE":null,"ECCENTRICITY":"0.00014080","REV_AT_EPOCH":"5794","SEMIMAJOR_AXIS":"6925.336","NORAD_CAT_ID":"47577","MEAN_ELEMENT_THEORY":"SGP4","GP_ID":"196428319","PERIOD":"95.592","FILE":"3308986","RCS_SIZE":"LARGE","TLE_LINE2":"2 47577  53.0536 176.2810 0001408  68.2261 291.8877 15.06404009 57943","MEAN_MOTION":"15.06404009","TLE_LINE1":"1 47577U 21009AF  22050.65268552 -.00000026  00000-0  17125-4 0  9999","BSTAR":"0.00001712500000","INCLINATION":"53.0536","PERIAPSIS":"546.226","OBJECT_ID":"2021-009AF","MEAN_ANOMALY":"291.8877","OBJECT_NAME":"STARLINK-1979","COUNTRY_CODE":"US","RA_OF_ASC_NODE":"176.2810","LAUNCH_DATE":"2021-02-04","TIME_SYSTEM":"UTC","EPHEMERIS_TYPE":"0","ARG_OF_PERICENTER":"68.2261","ELEMENT_SET_NO":"999","EPOCH":"2022-02-19T15:39:52.028928","MEAN_MOTION_DOT":"-0.00000026","CENTER_NAME":"EARTH","APOAPSIS":"548.176"},{"DECAY_DATE":null,"ECCENTRICITY":"0.00014750","REV_AT_EPOCH":"5788","SEMIMAJOR_AXIS":"6925.340","SITE":"AFETR","CLASSIFICATION_TYPE":"U","REF_FRAME":"TEME","MEAN_MOTION_DDOT":"0.0000000000000","OBJECT_TYPE":"PAYLOAD","FILE":"3308986","RCS_SIZE":"LARGE","TLE_LINE2":"2 47578  53.0545 180.6997 0001475  70.9121 289.2027 15.06402942 57883","NORAD_CAT_ID":"47578","MEAN_ELEMENT_THEORY":"SGP4","GP_ID":"196427070","PERIOD":"95.592","COUNTRY_CODE":"US","RA_OF_ASC_NODE":"180.6997","LAUNCH_DATE":"2021-02-04","TIME_SYSTEM":"UTC","EPHEMERIS_TYPE":"0","MEAN_MOTION":"15.06402942","TLE_LINE1":"1 47578U 21009AG  22050.77938906 -.00000289  00000-0 -47711-6 0  9998","BSTAR":"-0.00000047711000","INCLINATION":"53.0545","PERIAPSIS":"546.183","OBJECT_ID":"2021-009AG","MEAN_ANOMALY":"289.2027","OBJECT_NAME":"STARLINK-1980","CENTER_NAME":"EARTH","APOAPSIS":"548.226","ARG_OF_PERICENTER":"70.9121","ELEMENT_SET_NO":"999","EPOCH":"2022-02-19T18:42:19.214784","MEAN_MOTION_DOT":"-0.00000289"},{"CENTER_NAME":"EARTH","APOAPSIS":"548.335","EPOCH":"2022-02-19T19:52:38.344512","MEAN_MOTION_DOT":"0.00001912","ELEMENT_SET_NO":"999","ARG_OF_PERICENTER":"63.3749","LAUNCH_DATE":"2021-02-04","TIME_SYSTEM":"UTC","EPHEMERIS_TYPE":"0","COUNTRY_CODE":"US","RA_OF_ASC_NODE":"170.4873","MEAN_ANOMALY":"296.7407","OBJECT_ID":"2021-009AH","OBJECT_NAME":"STARLINK-1981","MEAN_MOTION":"15.06402901","TLE_LINE1":"1 47579U 21009AH  22050.82822158  .00001912  00000-0  14721-3 0  9990","BSTAR":"0.00014721000000","INCLINATION":"53.0553","PERIAPSIS":"546.074","TLE_LINE2":"2 47579  53.0553 170.4873 0001632  63.3749 296.7407 15.06402901 58038","FILE":"3308986","RCS_SIZE":"LARGE","GP_ID":"196427318","PERIOD":"95.592","NORAD_CAT_ID":"47579","MEAN_ELEMENT_THEORY":"SGP4","REV_AT_EPOCH":"5803","SEMIMAJOR_AXIS":"6925.340","DECAY_DATE":null,"ECCENTRICITY":"0.00016320","MEAN_MOTION_DDOT":"0.0000000000000","OBJECT_TYPE":"PAYLOAD","SITE":"AFETR","CLASSIFICATION_TYPE":"U","REF_FRAME":"TEME"},{"PERIOD":"95.592","GP_ID":"196428566","NORAD_CAT_ID":"47580","MEAN_ELEMENT_THEORY":"SGP4","TLE_LINE2":"2 47580  53.0551 180.6846 0001576  62.5290 297.5859 15.06405365 57889","RCS_SIZE":"LARGE","FILE":"3308986","OBJECT_TYPE":"PAYLOAD","MEAN_MOTION_DDOT":"0.0000000000000","REF_FRAME":"TEME","CLASSIFICATION_TYPE":"U","SITE":"AFETR","SEMIMAJOR_AXIS":"6925.332","REV_AT_EPOCH":"5788","ECCENTRICITY":"0.00015760","DECAY_DATE":null,"MEAN_MOTION_DOT":"0.00001785","EPOCH":"2022-02-19T18:47:37.565088","ARG_OF_PERICENTER":"62.5290","ELEMENT_SET_NO":"999","APOAPSIS":"548.289","CENTER_NAME":"EARTH","OBJECT_NAME":"STARLINK-1982","MEAN_ANOMALY":"297.5859","OBJECT_ID":"2021-009AJ","PERIAPSIS":"546.106","BSTAR":"0.00013868000000","INCLINATION":"53.0551","TLE_LINE1":"1 47580U 21009AJ  22050.78307367  .00001785  00000-0  13868-3 0  9996","MEAN_MOTION":"15.06405365","EPHEMERIS_TYPE":"0","TIME_SYSTEM":"UTC","LAUNCH_DATE":"2021-02-04","RA_OF_ASC_NODE":"180.6846","COUNTRY_CODE":"US"},{"ECCENTRICITY":"0.00014080","DECAY_DATE":null,"SEMIMAJOR_AXIS":"6925.344","REV_AT_EPOCH":"5815","CLASSIFICATION_TYPE":"U","REF_FRAME":"TEME","SITE":"AFETR","OBJECT_TYPE":"PAYLOAD","MEAN_MOTION_DDOT":"0.0000000000000","RCS_SIZE":"LARGE","FILE":"3308986","TLE_LINE2":"2 47581  53.0554 161.0843 0001408  68.2208 291.8931 15.06401330 58156","NORAD_CAT_ID":"47581","MEAN_ELEMENT_THEORY":"SGP4","PERIOD":"95.592","GP_ID":"196428820","RA_OF_ASC_NODE":"161.0843","COUNTRY_CODE":"US","EPHEMERIS_TYPE":"0","TIME_SYSTEM":"UTC","LAUNCH_DATE":"2021-02-04","PERIAPSIS":"546.234","INCLINATION":"53.0554","BSTAR":"0.00002274900000","MEAN_MOTION":"15.06401330","TLE_LINE1":"1 47581U 21009AK  22050.69645752  .00000057  00000-0  22749-4 0  9990","OBJECT_NAME":"STARLINK-1984","MEAN_ANOMALY":"291.8931","OBJECT_ID":"2021-009AK","APOAPSIS":"548.185","CENTER_NAME":"EARTH","ARG_OF_PERICENTER":"68.2208","ELEMENT_SET_NO":"999","MEAN_MOTION_DOT":"0.00000057","EPOCH":"2022-02-19T16:42:53.929728"}];
